{"type": "FeatureCollection", "features": [ {"type": "Feature", "properties": {"norad_id": 40118, "name": "GAOFEN-2", "group": "resource", "lat": 12.582631714060541, "lon": 52.161059019963766, "alt_km": 627.2928893120006, "timestamp": "2025-12-20T18:51:31.375117+00:00", "meta": {"OBJECT_NAME": "GAOFEN-2", "OBJECT_ID": "2014-049A", "EPOCH": "2025-12-20T13:56:08.560896", "MEAN_MOTION": 14.80620965, "ECCENTRICITY": 0.00087218, "INCLINATION": 98.0379, "RA_OF_ASC_NODE": 53.7631, "ARG_OF_PERICENTER": 91.1518, "MEAN_ANOMALY": 269.0693, "EPHEMERIS_TYPE": 0, "CLASSIFICATION_TYPE": "U", "NORAD_CAT_ID": 40118, "ELEMENT_SET_NO": 999, "REV_AT_EPOCH": 61280, "BSTAR": 6.3160321e-05, "MEAN_MOTION_DOT": 4.31e-06, "MEAN_MOTION_DDOT": 0}, "tle": {"line1": "1 40118U 14049A   25354.58065464  .00000431  00000+0  63160-4 0  9996", "line2": "2 40118  98.0379  53.7631 0008721  91.1518 269.0693 14.80620965612803"}}, "geometry": {"type": "Point", "coordinates": [52.161059019963766, 12.582631714060541]}}, {"type": "Feature", "properties": {"norad_id": 40143, "name": "YAOGAN-21", "group": "resource", "lat": 36.984185568857825, "lon": -136.8068719738259, "alt_km": 495.6640214746085, "timestamp": "2025-12-20T18:51:31.375127+00:00", "meta": {"OBJECT_NAME": "YAOGAN-21", "OBJECT_ID": "2014-053A", "EPOCH": "2025-12-20T15:05:00.169152", "MEAN_MOTION": 15.23752274, "ECCENTRICITY": 0.00090325, "INCLINATION": 97.1746, "RA_OF_ASC_NODE": 37.5989, "ARG_OF_PERICENTER": 16.6349, "MEAN_ANOMALY": 343.5184, "EPHEMERIS_TYPE": 0, "CLASSIFICATION_TYPE": "U", "NORAD_CAT_ID": 40143, "ELEMENT_SET_NO": 999, "REV_AT_EPOCH": 62774, "BSTAR": 0.00019061461, "MEAN_MOTION_DOT": 4.52e-05, "MEAN_MOTION_DDOT": 0}, "tle": {"line1": "1 40143U 14053A   25354.62847418  .00004520  00000+0  19061-3 0  9994", "line2": "2 40143  97.1746  37.5989 0009032  16.6349 343.5184 15.23752274627744"}}, "geometry": {"type": "Point", "coordinates": [-136.8068719738259, 36.984185568857825]}}, {"type": "Feature", "properties": {"norad_id": 40275, "name": "YAOGAN-22", "group": "resource", "lat": 73.3339112898032, "lon": 98.96522137813658, "alt_km": 1198.757964835423, "timestamp": "2025-12-20T18:51:31.375137+00:00", "meta": {"OBJECT_NAME": "YAOGAN-22", "OBJECT_ID": "2014-063A", "EPOCH": "2025-12-20T09:20:28.325472", "MEAN_MOTION": 13.15522961, "ECCENTRICITY": 0.00060229, "INCLINATION": 100.7426, "RA_OF_ASC_NODE": 137.9168, "ARG_OF_PERICENTER": 229.7335, "MEAN_ANOMALY": 130.325, "EPHEMERIS_TYPE": 0, "CLASSIFICATION_TYPE": "U", "NORAD_CAT_ID": 40275, "ELEMENT_SET_NO": 999, "REV_AT_EPOCH": 53630, "BSTAR": 9.302356e-06, "MEAN_MOTION_DOT": -4.3e-07, "MEAN_MOTION_DDOT": 0}, "tle": {"line1": "1 40275U 14063A   25354.38921673 -.00000043  00000+0  93024-5 0  9990", "line2": "2 40275 100.7426 137.9168 0006022 229.7335 130.3250 13.15522961536302"}}, "geometry": {"type": "Point", "coordinates": [98.96522137813658, 73.3339112898032]}}, {"type": "Feature", "properties": {"norad_id": 40298, "name": "ASNARO", "group": "resource", "lat": 69.37296581987198, "lon": 50.439147635824106, "alt_km": 496.7419952791988, "timestamp": "2025-12-20T18:51:31.375147+00:00", "meta": {"OBJECT_NAME": "ASNARO", "OBJECT_ID": "2014-070A", "EPOCH": "2025-12-20T13:48:28.791072", "MEAN_MOTION": 15.19646389, "ECCENTRICITY": 0.00057139, "INCLINATION": 97.3649, "RA_OF_ASC_NODE": 70.3316, "ARG_OF_PERICENTER": 100.2869, "MEAN_ANOMALY": 259.901, "EPHEMERIS_TYPE": 0, "CLASSIFICATION_TYPE": "U", "NORAD_CAT_ID": 40298, "ELEMENT_SET_NO": 999, "REV_AT_EPOCH": 61688, "BSTAR": 0.0004297253, "MEAN_MOTION_DOT": 9.102e-05, "MEAN_MOTION_DDOT": 0}, "tle": {"line1": "1 40298U 14070A   25354.57533323  .00009102  00000+0  42973-3 0  9994", "line2": "2 40298  97.3649  70.3316 0005713 100.2869 259.9010 15.19646389616882"}}, "geometry": {"type": "Point", "coordinates": [50.439147635824106, 69.37296581987198]}}, {"type": "Feature", "properties": {"norad_id": 40310, "name": "YAOGAN-24", "group": "resource", "lat": -48.13345556168109, "lon": -63.24747296810797, "alt_km": 652.66175652932, "timestamp": "2025-12-20T18:51:31.375157+00:00", "meta": {"OBJECT_NAME": "YAOGAN-24", "OBJECT_ID": "2014-072A", "EPOCH": "2025-12-20T14:34:25.160160", "MEAN_MOTION": 14.76193835, "ECCENTRICITY": 0.00151053, "INCLINATION": 98.1224, "RA_OF_ASC_NODE": 125.7427, "ARG_OF_PERICENTER": 114.3663, "MEAN_ANOMALY": 245.9125, "EPHEMERIS_TYPE": 0, "CLASSIFICATION_TYPE": "U", "NORAD_CAT_ID": 40310, "ELEMENT_SET_NO": 999, "REV_AT_EPOCH": 59737, "BSTAR": 0.00019100471, "MEAN_MOTION_DOT": 1.27e-05, "MEAN_MOTION_DDOT": 0}, "tle": {"line1": "1 40310U 14072A   25354.60723565  .00001270  00000+0  19100-3 0  9998", "line2": "2 40310  98.1224 125.7427 0015105 114.3663 245.9125 14.76193835597376"}}, "geometry": {"type": "Point", "coordinates": [-63.24747296810797, -48.13345556168109]}}, {"type": "Feature", "properties": {"norad_id": 40336, "name": "CBERS 4", "group": "resource", "lat": -52.17511707540865, "lon": -138.35057699614237, "alt_km": 781.121776324293, "timestamp": "2025-12-20T18:51:31.375167+00:00", "meta": {"OBJECT_NAME": "CBERS 4", "OBJECT_ID": "2014-079A", "EPOCH": "2025-12-20T14:25:53.647104", "MEAN_MOTION": 14.3552081, "ECCENTRICITY": 0.00018115, "INCLINATION": 98.3303, "RA_OF_ASC_NODE": 52.3495, "ARG_OF_PERICENTER": 102.7405, "MEAN_ANOMALY": 257.3984, "EPHEMERIS_TYPE": 0, "CLASSIFICATION_TYPE": "U", "NORAD_CAT_ID": 40336, "ELEMENT_SET_NO": 999, "REV_AT_EPOCH": 57833, "BSTAR": 7.7293606e-05, "MEAN_MOTION_DOT": 1.8e-06, "MEAN_MOTION_DDOT": 0}, "tle": {"line1": "1 40336U 14079A   25354.60131536  .00000180  00000+0  77294-4 0  9992", "line2": "2 40336  98.3303  52.3495 0001811 102.7405 257.3984 14.35520810578335"}}, "geometry": {"type": "Point", "coordinates": [-138.35057699614237, -52.17511707540865]}}, {"type": "Feature", "properties": {"norad_id": 40362, "name": "YAOGAN-26", "group": "resource", "lat": -47.73600867507215, "lon": 3.015420284237206, "alt_km": 452.2639602377112, "timestamp": "2025-12-20T18:51:31.375177+00:00", "meta": {"OBJECT_NAME": "YAOGAN-26", "OBJECT_ID": "2014-088A", "EPOCH": "2025-12-20T14:23:16.425024", "MEAN_MOTION": 15.39553641, "ECCENTRICITY": 0.00051094, "INCLINATION": 97.0634, "RA_OF_ASC_NODE": 354.9937, "ARG_OF_PERICENTER": 6.5009, "MEAN_ANOMALY": 353.6303, "EPHEMERIS_TYPE": 0, "CLASSIFICATION_TYPE": "U", "NORAD_CAT_ID": 40362, "ELEMENT_SET_NO": 999, "REV_AT_EPOCH": 61015, "BSTAR": 0.00025770763, "MEAN_MOTION_DOT": 0.0001006, "MEAN_MOTION_DDOT": 0}, "tle": {"line1": "1 40362U 14088A   25354.59949566  .00010060  00000+0  25771-3 0  9999", "line2": "2 40362  97.0634 354.9937 0005109   6.5009 353.6303 15.39553641610159"}}, "geometry": {"type": "Point", "coordinates": [3.015420284237206, -47.73600867507215]}}, {"type": "Feature", "properties": {"norad_id": 40376, "name": "SMAP", "group": "resource", "lat": 19.08338916612682, "lon": -177.77212568239557, "alt_km": 682.279561482841, "timestamp": "2025-12-20T18:51:31.375187+00:00", "meta": {"OBJECT_NAME": "SMAP", "OBJECT_ID": "2015-003A", "EPOCH": "2025-12-20T13:12:14.884992", "MEAN_MOTION": 14.63353928, "ECCENTRICITY": 0.0001227, "INCLINATION": 98.1288, "RA_OF_ASC_NODE": 359.1614, "ARG_OF_PERICENTER": 91.4637, "MEAN_ANOMALY": 268.6706, "EPHEMERIS_TYPE": 0, "CLASSIFICATION_TYPE": "U", "NORAD_CAT_ID": 40376, "ELEMENT_SET_NO": 999, "REV_AT_EPOCH": 58149, "BSTAR": 7.807262e-05, "MEAN_MOTION_DOT": 3.56e-06, "MEAN_MOTION_DDOT": 0}, "tle": {"line1": "1 40376U 15003A   25354.55017228  .00000356  00000+0  78073-4 0  9990", "line2": "2 40376  98.1288 359.1614 0001227  91.4637 268.6706 14.63353928581495"}}, "geometry": {"type": "Point", "coordinates": [-177.77212568239557, 19.08338916612682]}}, {"type": "Feature", "properties": {"norad_id": 40536, "name": "KOMPSAT-3A", "group": "resource", "lat": 26.898785002353335, "lon": -34.34707352831019, "alt_km": 432.19239433488747, "timestamp": "2025-12-20T18:51:31.375197+00:00", "meta": {"OBJECT_NAME": "KOMPSAT-3A", "OBJECT_ID": "2015-014A", "EPOCH": "2025-12-20T14:04:33.095424", "MEAN_MOTION": 15.44213131, "ECCENTRICITY": 0.00054422, "INCLINATION": 97.6793, "RA_OF_ASC_NODE": 329.3676, "ARG_OF_PERICENTER": 109.4268, "MEAN_ANOMALY": 250.7568, "EPHEMERIS_TYPE": 0, "CLASSIFICATION_TYPE": "U", "NORAD_CAT_ID": 40536, "ELEMENT_SET_NO": 999, "REV_AT_EPOCH": 59416, "BSTAR": 0.00028526416, "MEAN_MOTION_DOT": 0.00013013, "MEAN_MOTION_DDOT": 0}, "tle": {"line1": "1 40536U 15014A   25354.58649416  .00013013  00000+0  28526-3 0  9994", "line2": "2 40536  97.6793 329.3676 0005442 109.4268 250.7568 15.44213131594165"}}, "geometry": {"type": "Point", "coordinates": [-34.34707352831019, 26.898785002353335]}}, {"type": "Feature", "properties": {"norad_id": 40697, "name": "SENTINEL-2A", "group": "resource", "lat": 11.713611777527777, "lon": -111.00178209382922, "alt_km": 790.2006033426269, "timestamp": "2025-12-20T18:51:31.375207+00:00", "meta": {"OBJECT_NAME": "SENTINEL-2A", "OBJECT_ID": "2015-028A", "EPOCH": "2025-12-20T14:43:09.544224", "MEAN_MOTION": 14.3080909, "ECCENTRICITY": 0.00010919, "INCLINATION": 98.5744, "RA_OF_ASC_NODE": 67.0355, "ARG_OF_PERICENTER": 86.9855, "MEAN_ANOMALY": 273.1452, "EPHEMERIS_TYPE": 0, "CLASSIFICATION_TYPE": "U", "NORAD_CAT_ID": 40697, "ELEMENT_SET_NO": 999, "REV_AT_EPOCH": 54819, "BSTAR": 0.0001587783, "MEAN_MOTION_DOT": 3.72e-06, "MEAN_MOTION_DDOT": 0}, "tle": {"line1": "1 40697U 15028A   25354.61330491  .00000372  00000+0  15878-3 0  9991", "line2": "2 40697  98.5744  67.0355 0001091  86.9855 273.1452 14.30809090548198"}}, "geometry": {"type": "Point", "coordinates": [-111.00178209382922, 11.713611777527777]}}]}